1 25118U 97084G   19282.78920988  .00000131  00000-0  88081-4 0  9992
2 25118  45.0161 179.7447 0002351 274.4699 131.0052 14.38963405141941
1 25118U 97084G   19283.90238539 +.00000132 +00000-0 +88330-4 0  9999
2 25118 045.0160 174.4601 0002311 277.7426 139.8777 14.38964057142084
